[
  {
    "OBJECT_NAME": "MOZHAYETS 4 (RS-22)",
    "OBJECT_ID": "2003-042A",
    "EPOCH": "2025-05-24T20:22:07.850208",
    "MEAN_MOTION": 14.72314096,
    "ECCENTRICITY": 0.0012568,
    "INCLINATION": 98.327,
    "RA_OF_ASC_NODE": 313.922,
    "ARG_OF_PERICENTER": 63.3808,
    "MEAN_ANOMALY": 66.6144,
    "EPHEMERIS_TYPE": 0,
    "CLASSIFICATION_TYPE": "U",
    "NORAD_CAT_ID": 27939,
    "ELEMENT_SET_NO": 999,
    "REV_AT_EPOCH": 15851,
    "BSTAR": 0.00017812,
    "MEAN_MOTION_DOT": 1.074e-05,
    "MEAN_MOTION_DDOT": 0
  },
  {
    "OBJECT_NAME": "CUBESAT XI-V",
    "OBJECT_ID": "2005-043F",
    "EPOCH": "2025-05-24T07:53:39.985728",
    "MEAN_MOTION": 14.70960887,
    "ECCENTRICITY": 0.0014406,
    "INCLINATION": 98.2477,
    "RA_OF_ASC_NODE": 288.4785,
    "ARG_OF_PERICENTER": 3.9589,
    "MEAN_ANOMALY": 356.1728,
    "EPHEMERIS_TYPE": 0,
    "CLASSIFICATION_TYPE": "U",
    "NORAD_CAT_ID": 28895,
    "ELEMENT_SET_NO": 999,
    "REV_AT_EPOCH": 4455,
    "BSTAR": 0.00023234,
    "MEAN_MOTION_DOT": 1.374e-05,
    "MEAN_MOTION_DDOT": 0
  },
  {
    "OBJECT_NAME": "CUTE-1.7+APD II (CO-65)",
    "OBJECT_ID": "2008-021C",
    "EPOCH": "2025-05-24T13:47:58.510464",
    "MEAN_MOTION": 15.04274947,
    "ECCENTRICITY": 0.000748,
    "INCLINATION": 97.7845,
    "RA_OF_ASC_NODE": 115.623,
    "ARG_OF_PERICENTER": 265.9732,
    "MEAN_ANOMALY": 94.0638,
    "EPHEMERIS_TYPE": 0,
    "CLASSIFICATION_TYPE": "U",
    "NORAD_CAT_ID": 32785,
    "ELEMENT_SET_NO": 999,
    "REV_AT_EPOCH": 92667,
    "BSTAR": 0.00028978,
    "MEAN_MOTION_DOT": 3.972e-05,
    "MEAN_MOTION_DDOT": 0
  },
  {
    "OBJECT_NAME": "SEEDS II (CO-66)",
    "OBJECT_ID": "2008-021J",
    "EPOCH": "2025-05-24T21:19:54.998400",
    "MEAN_MOTION": 15.18326908,
    "ECCENTRICITY": 0.0002832,
    "INCLINATION": 97.7264,
    "RA_OF_ASC_NODE": 124.5856,
    "ARG_OF_PERICENTER": 187.3096,
    "MEAN_ANOMALY": 172.8096,
    "EPHEMERIS_TYPE": 0,
    "CLASSIFICATION_TYPE": "U",
    "NORAD_CAT_ID": 32791,
    "ELEMENT_SET_NO": 999,
    "REV_AT_EPOCH": 92819,
    "BSTAR": 0.00052143,
    "MEAN_MOTION_DOT": 0.00010639,
    "MEAN_MOTION_DDOT": 0
  },
  {
    "OBJECT_NAME": "YUBILEINY (RS-30)",
    "OBJECT_ID": "2008-025A",
    "EPOCH": "2025-05-24T20:52:09.958944",
    "MEAN_MOTION": 12.43164521,
    "ECCENTRICITY": 0.0020458,
    "INCLINATION": 82.5037,
    "RA_OF_ASC_NODE": 236.9453,
    "ARG_OF_PERICENTER": 81.9982,
    "MEAN_ANOMALY": 278.3418,
    "EPHEMERIS_TYPE": 0,
    "CLASSIFICATION_TYPE": "U",
    "NORAD_CAT_ID": 32953,
    "ELEMENT_SET_NO": 999,
    "REV_AT_EPOCH": 77158,
    "BSTAR": 8.5011e-05,
    "MEAN_MOTION_DOT": 2.2e-07,
    "MEAN_MOTION_DDOT": 0
  },
  {
    "OBJECT_NAME": "KKS-1 (KISEKI)",
    "OBJECT_ID": "2009-002H",
    "EPOCH": "2025-05-24T14:02:30.545664",
    "MEAN_MOTION": 14.81571578,
    "ECCENTRICITY": 0.0009541,
    "INCLINATION": 98.1215,
    "RA_OF_ASC_NODE": 56.4336,
    "ARG_OF_PERICENTER": 105.4516,
    "MEAN_ANOMALY": 254.7751,
    "EPHEMERIS_TYPE": 0,
    "CLASSIFICATION_TYPE": "U",
    "NORAD_CAT_ID": 33499,
    "ELEMENT_SET_NO": 999,
    "REV_AT_EPOCH": 87862,
    "BSTAR": 0.00016873,
    "MEAN_MOTION_DOT": 1.271e-05,
    "MEAN_MOTION_DDOT": 0
  },
  {
    "OBJECT_NAME": "SWISSCUBE",
    "OBJECT_ID": "2009-051B",
    "EPOCH": "2025-05-24T16:14:18.589920",
    "MEAN_MOTION": 14.61296925,
    "ECCENTRICITY": 0.0006812,
    "INCLINATION": 98.4322,
    "RA_OF_ASC_NODE": 40.6127,
    "ARG_OF_PERICENTER": 352.9708,
    "MEAN_ANOMALY": 7.1395,
    "EPHEMERIS_TYPE": 0,
    "CLASSIFICATION_TYPE": "U",
    "NORAD_CAT_ID": 35932,
    "ELEMENT_SET_NO": 999,
    "REV_AT_EPOCH": 83243,
    "BSTAR": 0.00021041,
    "MEAN_MOTION_DOT": 9.9e-06,
    "MEAN_MOTION_DDOT": 0
  },
  {
    "OBJECT_NAME": "BEESAT-1",
    "OBJECT_ID": "2009-051C",
    "EPOCH": "2025-05-24T12:10:59.332224",
    "MEAN_MOTION": 14.6071678,
    "ECCENTRICITY": 0.0005587,
    "INCLINATION": 98.4253,
    "RA_OF_ASC_NODE": 40.823,
    "ARG_OF_PERICENTER": 9.6239,
    "MEAN_ANOMALY": 350.5067,
    "EPHEMERIS_TYPE": 0,
    "CLASSIFICATION_TYPE": "U",
    "NORAD_CAT_ID": 35933,
    "ELEMENT_SET_NO": 999,
    "REV_AT_EPOCH": 83242,
    "BSTAR": 0.00018087,
    "MEAN_MOTION_DOT": 8.33e-06,
    "MEAN_MOTION_DDOT": 0
  },
  {
    "OBJECT_NAME": "ITUPSAT1",
    "OBJECT_ID": "2009-051E",
    "EPOCH": "2025-05-24T05:41:25.097856",
    "MEAN_MOTION": 14.59516385,
    "ECCENTRICITY": 0.0007993,
    "INCLINATION": 98.4348,
    "RA_OF_ASC_NODE": 40.1023,
    "ARG_OF_PERICENTER": 14.5214,
    "MEAN_ANOMALY": 345.6213,
    "EPHEMERIS_TYPE": 0,
    "CLASSIFICATION_TYPE": "U",
    "NORAD_CAT_ID": 35935,
    "ELEMENT_SET_NO": 999,
    "REV_AT_EPOCH": 83198,
    "BSTAR": 0.00017472,
    "MEAN_MOTION_DOT": 7.81e-06,
    "MEAN_MOTION_DDOT": 0
  },
  {
    "OBJECT_NAME": "XIWANG-1 (HOPE-1)",
    "OBJECT_ID": "2009-072B",
    "EPOCH": "2025-05-24T17:37:16.412736",
    "MEAN_MOTION": 13.16424645,
    "ECCENTRICITY": 0.0008019,
    "INCLINATION": 100.3483,
    "RA_OF_ASC_NODE": 100.8456,
    "ARG_OF_PERICENTER": 45.1017,
    "MEAN_ANOMALY": 315.0746,
    "EPHEMERIS_TYPE": 0,
    "CLASSIFICATION_TYPE": "U",
    "NORAD_CAT_ID": 36122,
    "ELEMENT_SET_NO": 999,
    "REV_AT_EPOCH": 74199,
    "BSTAR": 2.5689e-05,
    "MEAN_MOTION_DOT": -3.4e-07,
    "MEAN_MOTION_DDOT": 0
  },
  {
    "OBJECT_NAME": "O/OREOS (USA 219)",
    "OBJECT_ID": "2010-062C",
    "EPOCH": "2025-05-24T09:36:16.354656",
    "MEAN_MOTION": 14.91387713,
    "ECCENTRICITY": 0.0012924,
    "INCLINATION": 71.9717,
    "RA_OF_ASC_NODE": 239.3824,
    "ARG_OF_PERICENTER": 87.2184,
    "MEAN_ANOMALY": 273.0464,
    "EPHEMERIS_TYPE": 0,
    "CLASSIFICATION_TYPE": "U",
    "NORAD_CAT_ID": 37224,
    "ELEMENT_SET_NO": 999,
    "REV_AT_EPOCH": 5863,
    "BSTAR": 0.0002028,
    "MEAN_MOTION_DOT": 1.967e-05,
    "MEAN_MOTION_DDOT": 0
  },
  {
    "OBJECT_NAME": "JUGNU",
    "OBJECT_ID": "2011-058B",
    "EPOCH": "2025-05-24T08:58:09.466752",
    "MEAN_MOTION": 14.1359799,
    "ECCENTRICITY": 0.0018843,
    "INCLINATION": 19.959,
    "RA_OF_ASC_NODE": 150.2716,
    "ARG_OF_PERICENTER": 102.7642,
    "MEAN_ANOMALY": 290.2289,
    "EPHEMERIS_TYPE": 0,
    "CLASSIFICATION_TYPE": "U",
    "NORAD_CAT_ID": 37839,
    "ELEMENT_SET_NO": 999,
    "REV_AT_EPOCH": 70394,
    "BSTAR": 8.476e-05,
    "MEAN_MOTION_DOT": 4.29e-06,
    "MEAN_MOTION_DDOT": 0
  },
  {
    "OBJECT_NAME": "SRMSAT",
    "OBJECT_ID": "2011-058D",
    "EPOCH": "2025-05-24T13:21:47.270304",
    "MEAN_MOTION": 14.11431148,
    "ECCENTRICITY": 0.0011613,
    "INCLINATION": 19.9716,
    "RA_OF_ASC_NODE": 251.5151,
    "ARG_OF_PERICENTER": 248.8692,
    "MEAN_ANOMALY": 215.3986,
    "EPHEMERIS_TYPE": 0,
    "CLASSIFICATION_TYPE": "U",
    "NORAD_CAT_ID": 37841,
    "ELEMENT_SET_NO": 999,
    "REV_AT_EPOCH": 70284,
    "BSTAR": 8.3215e-05,
    "MEAN_MOTION_DOT": 4.18e-06,
    "MEAN_MOTION_DDOT": 0
  },
  {
    "OBJECT_NAME": "STRAND-1",
    "OBJECT_ID": "2013-009E",
    "EPOCH": "2025-05-24T10:47:18.080448",
    "MEAN_MOTION": 14.36806168,
    "ECCENTRICITY": 0.0007837,
    "INCLINATION": 98.3827,
    "RA_OF_ASC_NODE": 329.5698,
    "ARG_OF_PERICENTER": 319.4928,
    "MEAN_ANOMALY": 40.5674,
    "EPHEMERIS_TYPE": 0,
    "CLASSIFICATION_TYPE": "U",
    "NORAD_CAT_ID": 39090,
    "ELEMENT_SET_NO": 999,
    "REV_AT_EPOCH": 64123,
    "BSTAR": 0.00011773,
    "MEAN_MOTION_DOT": 3.05e-06,
    "MEAN_MOTION_DDOT": 0
  }
]