MOZHAYETS 4 (RS-22)     
1 27939U 03042A   25144.84870197  .00001074  00000+0  17812-3 0  9992
2 27939  98.3270 313.9220 0012568  63.3808  66.6144 14.72314096158515
CUBESAT XI-V            
1 28895U 05043F   25144.32893502  .00001374  00000+0  23234-3 0  9993
2 28895  98.2477 288.4785 0014406   3.9589 356.1728 14.70960887 44552
CUTE-1.7+APD II (CO-65) 
1 32785U 08021C   25144.57498276  .00003972  00000+0  28978-3 0  9997
2 32785  97.7845 115.6230 0007480 265.9732  94.0638 15.04274947926671
SEEDS II (CO-66)        
1 32791U 08021J   25144.88883100  .00010639  00000+0  52143-3 0  9991
2 32791  97.7264 124.5856 0002832 187.3096 172.8096 15.18326908928194
YUBILEINY (RS-30)       
1 32953U 08025A   25144.86955971  .00000022  00000+0  85011-4 0  9995
2 32953  82.5037 236.9453 0020458  81.9982 278.3418 12.43164521771587
KKS-1 (KISEKI)          
1 33499U 09002H   25144.58507576  .00001271  00000+0  16873-3 0  9996
2 33499  98.1215  56.4336 0009541 105.4516 254.7751 14.81571578878623
SWISSCUBE               
1 35932U 09051B   25144.67660405  .00000990  00000+0  21041-3 0  9995
2 35932  98.4322  40.6127 0006812 352.9708   7.1395 14.61296925832433
BEESAT-1                
1 35933U 09051C   25144.50763116  .00000833  00000+0  18087-3 0  9993
2 35933  98.4253  40.8230 0005587   9.6239 350.5067 14.60716780832422
ITUPSAT1                
1 35935U 09051E   25144.23709604  .00000781  00000+0  17472-3 0  9996
2 35935  98.4348  40.1023 0007993  14.5214 345.6213 14.59516385831988
XIWANG-1 (HOPE-1)       
1 36122U 09072B   25144.73421774 -.00000034  00000+0  25689-4 0  9994
2 36122 100.3483 100.8456 0008019  45.1017 315.0746 13.16424645741997
O/OREOS (USA 219)       
1 37224U 10062C   25144.40018929  .00001967  00000+0  20280-3 0  9993
2 37224  71.9717 239.3824 0012924  87.2184 273.0464 14.91387713 58633
JUGNU                   
1 37839U 11058B   25144.37372068  .00000429  00000+0  84760-4 0  9990
2 37839  19.9590 150.2716 0018843 102.7642 290.2289 14.13597990703946
SRMSAT                  
1 37841U 11058D   25144.55679711  .00000418  00000+0  83215-4 0  9990
2 37841  19.9716 251.5151 0011613 248.8692 215.3986 14.11431148702842
STRAND-1                
1 39090U 13009E   25144.44951482  .00000305  00000+0  11773-3 0  9996
2 39090  98.3827 329.5698 0007837 319.4928  40.5674 14.36806168641238
